start=new Date('2022-09-09T00:00:00.000Z').valueOf();
sats=[{"MEAN_ELEMENT_THEORY":"SGP4","REF_FRAME":"TEME","EPOCH":"2022-09-08T19:40:22.600128","TLE_LINE1":"1 47677U 21012BK  22251.81970602  .00004958  00000-0  35142-3 0  9996","PERIAPSIS":"546.261","MEAN_ANOMALY":"287.9943","OBJECT_ID":"2021-012BK","PERIOD":"95.592","APOAPSIS":"548.125","NORAD_CAT_ID":"47677","TLE_LINE2":"2 47677  53.0564  48.1937 0001346  72.1193 287.9943 15.06406705 86869","DECAY_DATE":null,"MEAN_MOTION_DDOT":"0.0000000000000","REV_AT_EPOCH":"8686","COUNTRY_CODE":"US","CLASSIFICATION_TYPE":"U","CENTER_NAME":"EARTH","RCS_SIZE":"LARGE","FILE":"3563868","SEMIMAJOR_AXIS":"6925.328","ELEMENT_SET_NO":"999","EPHEMERIS_TYPE":"0","BSTAR":"0.00035142000000","RA_OF_ASC_NODE":"48.1937","INCLINATION":"53.0564","LAUNCH_DATE":"2021-02-16","TIME_SYSTEM":"UTC","ECCENTRICITY":"0.00013460","GP_ID":"212056612","MEAN_MOTION_DOT":"0.00004958","SITE":"AFETR","OBJECT_TYPE":"PAYLOAD","MEAN_MOTION":"15.06406705","OBJECT_NAME":"STARLINK-2090","ARG_OF_PERICENTER":"72.1193"},{"COUNTRY_CODE":"US","REV_AT_EPOCH":"8737","MEAN_MOTION_DDOT":"0.0000000000000","DECAY_DATE":null,"TLE_LINE2":"2 47679  53.0554  48.6757 0001212  85.5580 274.5548 15.06401585 87376","NORAD_CAT_ID":"47679","APOAPSIS":"548.048","PERIOD":"95.592","OBJECT_ID":"2021-012BM","MEAN_ANOMALY":"274.5548","PERIAPSIS":"546.369","TLE_LINE1":"1 47679U 21012BM  22251.71650444  .00001236  00000-0  10183-3 0  9990","EPOCH":"2022-09-08T17:11:45.983616","REF_FRAME":"TEME","MEAN_ELEMENT_THEORY":"SGP4","OBJECT_TYPE":"PAYLOAD","SITE":"AFETR","MEAN_MOTION":"15.06401585","OBJECT_NAME":"STARLINK-2095","ARG_OF_PERICENTER":"85.5580","GP_ID":"212091601","MEAN_MOTION_DOT":"0.00001236","ECCENTRICITY":"0.00012120","TIME_SYSTEM":"UTC","LAUNCH_DATE":"2021-02-16","INCLINATION":"53.0554","RA_OF_ASC_NODE":"48.6757","ELEMENT_SET_NO":"999","EPHEMERIS_TYPE":"0","BSTAR":"0.00010183000000","SEMIMAJOR_AXIS":"6925.344","FILE":"3564431","RCS_SIZE":"LARGE","CENTER_NAME":"EARTH","CLASSIFICATION_TYPE":"U"},{"OBJECT_TYPE":"PAYLOAD","SITE":"AFETR","MEAN_MOTION":"15.06383469","ARG_OF_PERICENTER":"75.2098","OBJECT_NAME":"STARLINK-2068","GP_ID":"212050398","MEAN_MOTION_DOT":"0.00000107","ECCENTRICITY":"0.00014630","TIME_SYSTEM":"UTC","LAUNCH_DATE":"2021-03-04","RA_OF_ASC_NODE":"176.0854","INCLINATION":"53.0559","ELEMENT_SET_NO":"999","BSTAR":"0.00002609600000","EPHEMERIS_TYPE":"0","SEMIMAJOR_AXIS":"6925.399","FILE":"3563723","RCS_SIZE":"LARGE","CLASSIFICATION_TYPE":"U","CENTER_NAME":"EARTH","COUNTRY_CODE":"US","REV_AT_EPOCH":"8529","MEAN_MOTION_DDOT":"0.0000000000000","DECAY_DATE":null,"NORAD_CAT_ID":"47722","TLE_LINE2":"2 47722  53.0559 176.0854 0001463  75.2098 284.9053 15.06383469 85297","PERIOD":"95.593","APOAPSIS":"548.277","MEAN_ANOMALY":"284.9053","OBJECT_ID":"2021-017A","TLE_LINE1":"1 47722U 21017A   22251.22864111  .00000107  00000-0  26096-4 0  9995","EPOCH":"2022-09-08T05:29:14.591904","PERIAPSIS":"546.251","REF_FRAME":"TEME","MEAN_ELEMENT_THEORY":"SGP4"},{"EPOCH":"2022-09-08T21:35:52.421856","TLE_LINE1":"1 47723U 21017B   22251.89991229  .00001894  00000-0  14604-3 0  9995","PERIAPSIS":"546.271","REF_FRAME":"TEME","MEAN_ELEMENT_THEORY":"SGP4","COUNTRY_CODE":"US","REV_AT_EPOCH":"8627","MEAN_MOTION_DDOT":"0.0000000000000","DECAY_DATE":null,"NORAD_CAT_ID":"47723","TLE_LINE2":"2 47723  53.0550 107.8496 0001401  78.3954 281.7192 15.06390931 86270","PERIOD":"95.593","APOAPSIS":"548.212","MEAN_ANOMALY":"281.7192","OBJECT_ID":"2021-017B","RA_OF_ASC_NODE":"107.8496","INCLINATION":"53.0550","EPHEMERIS_TYPE":"0","BSTAR":"0.00014604000000","ELEMENT_SET_NO":"999","SEMIMAJOR_AXIS":"6925.376","FILE":"3564431","RCS_SIZE":"LARGE","CLASSIFICATION_TYPE":"U","CENTER_NAME":"EARTH","OBJECT_TYPE":"PAYLOAD","SITE":"AFETR","OBJECT_NAME":"STARLINK-2107","ARG_OF_PERICENTER":"78.3954","MEAN_MOTION":"15.06390931","MEAN_MOTION_DOT":"0.00001894","GP_ID":"212092106","ECCENTRICITY":"0.00014010","TIME_SYSTEM":"UTC","LAUNCH_DATE":"2021-03-04"},{"REV_AT_EPOCH":"8623","COUNTRY_CODE":"US","MEAN_MOTION_DDOT":"0.0000000000000","DECAY_DATE":null,"APOAPSIS":"548.266","PERIOD":"95.592","TLE_LINE2":"2 47724  53.0537 107.9805 0001531  79.6705 280.4456 15.06402522 86238","NORAD_CAT_ID":"47724","MEAN_ANOMALY":"280.4456","OBJECT_ID":"2021-017C","TLE_LINE1":"1 47724U 21017C   22251.87042704  .00005963  00000-0  41885-3 0  9991","PERIAPSIS":"546.146","EPOCH":"2022-09-08T20:53:24.896256","REF_FRAME":"TEME","MEAN_ELEMENT_THEORY":"SGP4","SITE":"AFETR","OBJECT_TYPE":"PAYLOAD","ARG_OF_PERICENTER":"79.6705","OBJECT_NAME":"STARLINK-2116","MEAN_MOTION":"15.06402522","GP_ID":"212092849","MEAN_MOTION_DOT":"0.00005963","ECCENTRICITY":"0.00015310","LAUNCH_DATE":"2021-03-04","TIME_SYSTEM":"UTC","ELEMENT_SET_NO":"999","BSTAR":"0.00041885000000","EPHEMERIS_TYPE":"0","INCLINATION":"53.0537","RA_OF_ASC_NODE":"107.9805","SEMIMAJOR_AXIS":"6925.341","RCS_SIZE":"LARGE","FILE":"3564431","CENTER_NAME":"EARTH","CLASSIFICATION_TYPE":"U"},{"TIME_SYSTEM":"UTC","LAUNCH_DATE":"2021-03-04","ECCENTRICITY":"0.00014240","MEAN_MOTION_DOT":"0.00002438","GP_ID":"212091606","OBJECT_TYPE":"PAYLOAD","SITE":"AFETR","ARG_OF_PERICENTER":"67.9061","OBJECT_NAME":"STARLINK-2125","MEAN_MOTION":"15.06391650","CLASSIFICATION_TYPE":"U","CENTER_NAME":"EARTH","FILE":"3564431","RCS_SIZE":"LARGE","SEMIMAJOR_AXIS":"6925.374","RA_OF_ASC_NODE":"178.1268","INCLINATION":"53.0537","ELEMENT_SET_NO":"999","EPHEMERIS_TYPE":"0","BSTAR":"0.00018255000000","MEAN_ANOMALY":"292.2079","OBJECT_ID":"2021-017D","NORAD_CAT_ID":"47725","TLE_LINE2":"2 47725  53.0537 178.1268 0001424  67.9061 292.2079 15.06391650 85261","PERIOD":"95.593","APOAPSIS":"548.225","DECAY_DATE":null,"MEAN_MOTION_DDOT":"0.0000000000000","COUNTRY_CODE":"US","REV_AT_EPOCH":"8526","MEAN_ELEMENT_THEORY":"SGP4","REF_FRAME":"TEME","EPOCH":"2022-09-08T20:06:57.794688","TLE_LINE1":"1 47725U 21017D   22251.83816892  .00002438  00000-0  18255-3 0  9994","PERIAPSIS":"546.253"},{"MEAN_ANOMALY":"304.2538","OBJECT_ID":"2021-017E","APOAPSIS":"548.315","PERIOD":"95.593","TLE_LINE2":"2 47726  53.0549 178.1879 0001546  55.8597 304.2538 15.06390014 85254","NORAD_CAT_ID":"47726","DECAY_DATE":null,"MEAN_MOTION_DDOT":"0.0000000000000","REV_AT_EPOCH":"8525","COUNTRY_CODE":"US","MEAN_ELEMENT_THEORY":"SGP4","REF_FRAME":"TEME","PERIAPSIS":"546.174","TLE_LINE1":"1 47726U 21017E   22251.82342602  .00001560  00000-0  12361-3 0  9994","EPOCH":"2022-09-08T19:45:44.008128","LAUNCH_DATE":"2021-03-04","TIME_SYSTEM":"UTC","ECCENTRICITY":"0.00015460","MEAN_MOTION_DOT":"0.00001560","GP_ID":"212091856","OBJECT_TYPE":"PAYLOAD","SITE":"AFETR","MEAN_MOTION":"15.06390014","ARG_OF_PERICENTER":"55.8597","OBJECT_NAME":"STARLINK-2126","CENTER_NAME":"EARTH","CLASSIFICATION_TYPE":"U","RCS_SIZE":"LARGE","FILE":"3564431","SEMIMAJOR_AXIS":"6925.379","ELEMENT_SET_NO":"999","EPHEMERIS_TYPE":"0","BSTAR":"0.00012361000000","INCLINATION":"53.0549","RA_OF_ASC_NODE":"178.1879"},{"NORAD_CAT_ID":"47727","TLE_LINE2":"2 47727  53.0550  98.1206 0001557  72.9694 287.1466 15.06389175 86416","PERIOD":"95.593","APOAPSIS":"548.325","MEAN_ANOMALY":"287.1466","OBJECT_ID":"2021-017F","COUNTRY_CODE":"US","REV_AT_EPOCH":"8641","DECAY_DATE":null,"MEAN_MOTION_DDOT":"0.0000000000000","MEAN_ELEMENT_THEORY":"SGP4","PERIAPSIS":"546.168","TLE_LINE1":"1 47727U 21017F   22251.84092547  .00003720  00000-0  26859-3 0  9994","EPOCH":"2022-09-08T20:10:55.960608","REF_FRAME":"TEME","ECCENTRICITY":"0.00015570","TIME_SYSTEM":"UTC","LAUNCH_DATE":"2021-03-04","MEAN_MOTION":"15.06389175","SITE":"AFETR","OBJECT_TYPE":"PAYLOAD","OBJECT_NAME":"STARLINK-2129","ARG_OF_PERICENTER":"72.9694","GP_ID":"212092607","MEAN_MOTION_DOT":"0.00003720","FILE":"3564431","RCS_SIZE":"LARGE","CLASSIFICATION_TYPE":"U","CENTER_NAME":"EARTH","RA_OF_ASC_NODE":"98.1206","INCLINATION":"53.0550","EPHEMERIS_TYPE":"0","ELEMENT_SET_NO":"999","BSTAR":"0.00026859000000","SEMIMAJOR_AXIS":"6925.382"},{"TLE_LINE2":"2 47728  53.0529 179.4928 0001447  76.2933 283.8217 15.06402403 85278","NORAD_CAT_ID":"47728","APOAPSIS":"548.208","PERIOD":"95.592","MEAN_ANOMALY":"283.8217","OBJECT_ID":"2021-017G","COUNTRY_CODE":"US","REV_AT_EPOCH":"8527","DECAY_DATE":null,"MEAN_MOTION_DDOT":"0.0000000000000","MEAN_ELEMENT_THEORY":"SGP4","TLE_LINE1":"1 47728U 21017G   22251.53224626  .00009188  00000-0  63487-3 0  9998","PERIAPSIS":"546.204","EPOCH":"2022-09-08T12:46:26.076864","REF_FRAME":"TEME","ECCENTRICITY":"0.00014470","TIME_SYSTEM":"UTC","LAUNCH_DATE":"2021-03-04","SITE":"AFETR","OBJECT_TYPE":"PAYLOAD","OBJECT_NAME":"STARLINK-2131","MEAN_MOTION":"15.06402403","ARG_OF_PERICENTER":"76.2933","MEAN_MOTION_DOT":"0.00009188","GP_ID":"212048899","FILE":"3563723","RCS_SIZE":"LARGE","CENTER_NAME":"EARTH","CLASSIFICATION_TYPE":"U","INCLINATION":"53.0529","RA_OF_ASC_NODE":"179.4928","BSTAR":"0.00063487000000","EPHEMERIS_TYPE":"0","ELEMENT_SET_NO":"999","SEMIMAJOR_AXIS":"6925.341"},{"REF_FRAME":"TEME","TLE_LINE1":"1 47729U 21017H   22251.76033706  .00002721  00000-0  20156-3 0  9993","PERIAPSIS":"546.253","EPOCH":"2022-09-08T18:14:53.121984","MEAN_ELEMENT_THEORY":"SGP4","MEAN_MOTION_DDOT":"0.0000000000000","DECAY_DATE":null,"COUNTRY_CODE":"US","REV_AT_EPOCH":"8601","MEAN_ANOMALY":"282.4249","OBJECT_ID":"2021-017H","NORAD_CAT_ID":"47729","TLE_LINE2":"2 47729  53.0536 123.6788 0001450  77.6902 282.4249 15.06385658 86012","PERIOD":"95.593","APOAPSIS":"548.262","SEMIMAJOR_AXIS":"6925.393","RA_OF_ASC_NODE":"123.6788","INCLINATION":"53.0536","BSTAR":"0.00020156000000","EPHEMERIS_TYPE":"0","ELEMENT_SET_NO":"999","CLASSIFICATION_TYPE":"U","CENTER_NAME":"EARTH","FILE":"3564431","RCS_SIZE":"LARGE","GP_ID":"212091106","MEAN_MOTION_DOT":"0.00002721","OBJECT_TYPE":"PAYLOAD","SITE":"AFETR","OBJECT_NAME":"STARLINK-2132","ARG_OF_PERICENTER":"77.6902","MEAN_MOTION":"15.06385658","TIME_SYSTEM":"UTC","LAUNCH_DATE":"2021-03-04","ECCENTRICITY":"0.00014500"}];
